{
  "type": "FeatureCollection",
  "features": [
    {
      "type": "Feature",
      "properties": {
        "OBJECT_NAME": "GALAXY 36 (G-36)",
        "OBJECT_ID": "2022-170B",
        "EPOCH": "2025-11-29T23:43:20.536032",
        "MEAN_MOTION": 1.00271625,
        "ECCENTRICITY": 4.63e-05,
        "INCLINATION": 0.0084,
        "RA_OF_ASC_NODE": 35.2501,
        "ARG_OF_PERICENTER": 190.9427,
        "MEAN_ANOMALY": 109.7823,
        "EPHEMERIS_TYPE": 0,
        "CLASSIFICATION_TYPE": "U",
        "NORAD_CAT_ID": 54742,
        "ELEMENT_SET_NO": 999,
        "REV_AT_EPOCH": 1077,
        "BSTAR": 0,
        "MEAN_MOTION_DOT": -1.64e-06,
        "MEAN_MOTION_DDOT": 0,
        "norad_id": 54742,
        "name": "GALAXY 36 (G-36)",
        "group": "intelsat",
        "longitude_deg": NaN,
        "latitude_deg": NaN,
        "alt_km": NaN,
        "orbit_class": "HEO",
        "timestamp": "2025-11-30T09:33:02.532637+00:00"
      },
      "geometry": {
        "type": "Point",
        "coordinates": [
          NaN,
          NaN
        ]
      }
    },
    {
      "type": "Feature",
      "properties": {
        "OBJECT_NAME": "GALAXY 37 (G-37)",
        "OBJECT_ID": "2023-112A",
        "EPOCH": "2025-11-30T01:15:11.738016",
        "MEAN_MOTION": 1.00271911,
        "ECCENTRICITY": 0.0002236,
        "INCLINATION": 0.0185,
        "RA_OF_ASC_NODE": 36.7746,
        "ARG_OF_PERICENTER": 217.158,
        "MEAN_ANOMALY": 67.0615,
        "EPHEMERIS_TYPE": 0,
        "CLASSIFICATION_TYPE": "U",
        "NORAD_CAT_ID": 57493,
        "ELEMENT_SET_NO": 999,
        "REV_AT_EPOCH": 854,
        "BSTAR": 0,
        "MEAN_MOTION_DOT": 6.9e-07,
        "MEAN_MOTION_DDOT": 0,
        "norad_id": 57493,
        "name": "GALAXY 37 (G-37)",
        "group": "intelsat",
        "longitude_deg": NaN,
        "latitude_deg": NaN,
        "alt_km": NaN,
        "orbit_class": "HEO",
        "timestamp": "2025-11-30T09:33:02.543450+00:00"
      },
      "geometry": {
        "type": "Point",
        "coordinates": [
          NaN,
          NaN
        ]
      }
    }
  ]
}