GALAXY 36 (G-36)        
1 54742U 22170B   25333.98843213 -.00000164  00000+0  00000+0 0  9998
2 54742   0.0084  35.2501 0000463 190.9427 109.7823  1.00271625 10776
GALAXY 37 (G-37)        
1 57493U 23112A   25334.05221919  .00000069  00000+0  00000+0 0  9996
2 57493   0.0185  36.7746 0002236 217.1580  67.0615  1.00271911  8548
